[{"OBJECT_NAME":"STARLINK-6257","OBJECT_ID":"2023-088AS","EPOCH":"2026-03-09T22:00:01.999584","MEAN_MOTION":15.08879236,"ECCENTRICITY":0.00021662,"INCLINATION":43.0006,"RA_OF_ASC_NODE":93.1585,"ARG_OF_PERICENTER":279.6136,"MEAN_ANOMALY":118.0848,"EPHEMERIS_TYPE":0,"CLASSIFICATION_TYPE":"U","NORAD_CAT_ID":57088,"ELEMENT_SET_NO":999,"REV_AT_EPOCH":577,"BSTAR":0.0036044706,"MEAN_MOTION_DOT":0.00058033,"MEAN_MOTION_DDOT":0},{"OBJECT_NAME":"NOAA 17 DEB","OBJECT_ID":"2002-032CE","EPOCH":"2026-03-09T04:37:56.707680","MEAN_MOTION":15.14538728,"ECCENTRICITY":0.00195132,"INCLINATION":98.8443,"RA_OF_ASC_NODE":158.3366,"ARG_OF_PERICENTER":246.7141,"MEAN_ANOMALY":113.2034,"EPHEMERIS_TYPE":0,"CLASSIFICATION_TYPE":"U","NORAD_CAT_ID":48745,"ELEMENT_SET_NO":999,"REV_AT_EPOCH":26329,"BSTAR":0.0059143418,"MEAN_MOTION_DOT":0.00111029,"MEAN_MOTION_DDOT":0}]
